[{"OBJECT_NAME":"CUBESAT XI-V","OBJECT_ID":"2005-043F","EPOCH":"2026-04-27T04:02:51.185472","MEAN_MOTION":14.72493837,"ECCENTRICITY":0.00141944,"INCLINATION":98.2925,"RA_OF_ASC_NODE":271.7406,"ARG_OF_PERICENTER":12.8528,"MEAN_ANOMALY":347.3037,"EPHEMERIS_TYPE":0,"CLASSIFICATION_TYPE":"U","NORAD_CAT_ID":28895,"ELEMENT_SET_NO":999,"REV_AT_EPOCH":9424,"BSTAR":0.00025857913,"MEAN_MOTION_DOT":1.591e-5,"MEAN_MOTION_DDOT":0},{"OBJECT_NAME":"CLOUDSAT","OBJECT_ID":"2006-016A","EPOCH":"2026-04-27T06:07:50.654496","MEAN_MOTION":14.8628826,"ECCENTRICITY":0.00063076,"INCLINATION":98.3974,"RA_OF_ASC_NODE":151.7154,"ARG_OF_PERICENTER":128.8397,"MEAN_ANOMALY":231.3381,"EPHEMERIS_TYPE":0,"CLASSIFICATION_TYPE":"U","NORAD_CAT_ID":29107,"ELEMENT_SET_NO":999,"REV_AT_EPOCH":6694,"BSTAR":0.00014081356,"MEAN_MOTION_DOT":1.179e-5,"MEAN_MOTION_DDOT":0},{"OBJECT_NAME":"CALIPSO","OBJECT_ID":"2006-016B","EPOCH":"2026-04-27T06:57:46.365408","MEAN_MOTION":14.69252222,"ECCENTRICITY":0.00018312,"INCLINATION":98.4498,"RA_OF_ASC_NODE":131.2175,"ARG_OF_PERICENTER":89.7279,"MEAN_ANOMALY":270.4135,"EPHEMERIS_TYPE":0,"CLASSIFICATION_TYPE":"U","NORAD_CAT_ID":29108,"ELEMENT_SET_NO":999,"REV_AT_EPOCH":6558,"BSTAR":0.00019341631,"MEAN_MOTION_DOT":1.088e-5,"MEAN_MOTION_DDOT":0},{"OBJECT_NAME":"HINODE (SOLAR-B)","OBJECT_ID":"2006-041A","EPOCH":"2026-04-27T06:57:00.671040","MEAN_MOTION":14.68547722,"ECCENTRICITY":0.00189605,"INCLINATION":98.0578,"RA_OF_ASC_NODE":134.1893,"ARG_OF_PERICENTER":89.9779,"MEAN_ANOMALY":270.3599,"EPHEMERIS_TYPE":0,"CLASSIFICATION_TYPE":"U","NORAD_CAT_ID":29479,"ELEMENT_SET_NO":999,"REV_AT_EPOCH":4740,"BSTAR":0.00015173712,"MEAN_MOTION_DOT":8.34e-6,"MEAN_MOTION_DDOT":0},{"OBJECT_NAME":"METOP-A","OBJECT_ID":"2006-044A","EPOCH":"2026-04-27T06:37:24.982176","MEAN_MOTION":14.75733678,"ECCENTRICITY":0.01735582,"INCLINATION":98.3274,"RA_OF_ASC_NODE":222.4035,"ARG_OF_PERICENTER":231.4159,"MEAN_ANOMALY":182.8963,"EPHEMERIS_TYPE":0,"CLASSIFICATION_TYPE":"U","NORAD_CAT_ID":29499,"ELEMENT_SET_NO":999,"REV_AT_EPOCH":1794,"BSTAR":0.00027866435,"MEAN_MOTION_DOT":2.37e-5,"MEAN_MOTION_DDOT":0},{"OBJECT_NAME":"SHIJIAN-6 02B (SJ-6 02B)","OBJECT_ID":"2006-046B","EPOCH":"2026-04-27T07:00:34.761600","MEAN_MOTION":15.01219414,"ECCENTRICITY":0.00109623,"INCLINATION":97.7143,"RA_OF_ASC_NODE":146.6711,"ARG_OF_PERICENTER":235.325,"MEAN_ANOMALY":124.6942,"EPHEMERIS_TYPE":0,"CLASSIFICATION_TYPE":"U","NORAD_CAT_ID":29506,"ELEMENT_SET_NO":999,"REV_AT_EPOCH":6310,"BSTAR":0.0001761792,"MEAN_MOTION_DOT":2.203e-5,"MEAN_MOTION_DDOT":0},{"OBJECT_NAME":"DMSP 5D-3 F17 (USA 191)","OBJECT_ID":"2006-050A","EPOCH":"2026-04-27T06:10:33.721536","MEAN_MOTION":14.14982987,"ECCENTRICITY":0.00096983,"INCLINATION":98.7395,"RA_OF_ASC_NODE":124.8675,"ARG_OF_PERICENTER":194.9734,"MEAN_ANOMALY":165.1154,"EPHEMERIS_TYPE":0,"CLASSIFICATION_TYPE":"U","NORAD_CAT_ID":29522,"ELEMENT_SET_NO":999,"REV_AT_EPOCH":522,"BSTAR":8.6642641e-5,"MEAN_MOTION_DOT":1.24e-6,"MEAN_MOTION_DDOT":0},{"OBJECT_NAME":"LAPAN-TUBSAT","OBJECT_ID":"2007-001A","EPOCH":"2026-04-27T06:41:10.379904","MEAN_MOTION":14.8589639,"ECCENTRICITY":0.0012189,"INCLINATION":98.1348,"RA_OF_ASC_NODE":115.3585,"ARG_OF_PERICENTER":358.4329,"MEAN_ANOMALY":1.6845,"EPHEMERIS_TYPE":0,"CLASSIFICATION_TYPE":"U","NORAD_CAT_ID":29709,"ELEMENT_SET_NO":999,"REV_AT_EPOCH":4359,"BSTAR":9.6842917e-5,"MEAN_MOTION_DOT":7.87e-6,"MEAN_MOTION_DDOT":0},{"OBJECT_NAME":"HAIYANG-1B","OBJECT_ID":"2007-010A","EPOCH":"2026-04-27T05:49:32.958912","MEAN_MOTION":14.31013951,"ECCENTRICITY":0.00134785,"INCLINATION":98.3477,"RA_OF_ASC_NODE":101.071,"ARG_OF_PERICENTER":357.981,"MEAN_ANOMALY":2.1317,"EPHEMERIS_TYPE":0,"CLASSIFICATION_TYPE":"U","NORAD_CAT_ID":31113,"ELEMENT_SET_NO":999,"REV_AT_EPOCH":99334,"BSTAR":5.8836544e-5,"MEAN_MOTION_DOT":1.13e-6,"MEAN_MOTION_DDOT":0},{"OBJECT_NAME":"BEIDOU-2 M1","OBJECT_ID":"2007-011A","EPOCH":"2026-04-25T09:05:43.875456","MEAN_MOTION":1.77349285,"ECCENTRICITY":0.00015987,"INCLINATION":50.9482,"RA_OF_ASC_NODE":221.0336,"ARG_OF_PERICENTER":13.2566,"MEAN_ANOMALY":346.7459,"EPHEMERIS_TYPE":0,"CLASSIFICATION_TYPE":"U","NORAD_CAT_ID":31115,"ELEMENT_SET_NO":999,"REV_AT_EPOCH":7521,"BSTAR":0,"MEAN_MOTION_DOT":-3.8e-7,"MEAN_MOTION_DDOT":0},{"OBJECT_NAME":"CAPE-1","OBJECT_ID":"2007-012P","EPOCH":"2026-04-27T03:26:27.464352","MEAN_MOTION":14.64757039,"ECCENTRICITY":0.0082525,"INCLINATION":98.4433,"RA_OF_ASC_NODE":90.2865,"ARG_OF_PERICENTER":230.0055,"MEAN_ANOMALY":129.3882,"EPHEMERIS_TYPE":0,"CLASSIFICATION_TYPE":"U","NORAD_CAT_ID":31130,"ELEMENT_SET_NO":999,"REV_AT_EPOCH":1088,"BSTAR":0.00019464743,"MEAN_MOTION_DOT":1.034e-5,"MEAN_MOTION_DDOT":0},{"OBJECT_NAME":"CBERS 2B","OBJECT_ID":"2007-042A","EPOCH":"2026-04-27T07:28:16.282848","MEAN_MOTION":14.41447418,"ECCENTRICITY":0.00319404,"INCLINATION":98.3893,"RA_OF_ASC_NODE":62.8593,"ARG_OF_PERICENTER":126.525,"MEAN_ANOMALY":34.9196,"EPHEMERIS_TYPE":0,"CLASSIFICATION_TYPE":"U","NORAD_CAT_ID":32062,"ELEMENT_SET_NO":999,"REV_AT_EPOCH":97735,"BSTAR":9.5268984e-5,"MEAN_MOTION_DOT":2.68e-6,"MEAN_MOTION_DDOT":0},{"OBJECT_NAME":"COSMO-SKYMED 2","OBJECT_ID":"2007-059A","EPOCH":"2026-04-27T07:48:53.413344","MEAN_MOTION":14.82160729,"ECCENTRICITY":0.00014089,"INCLINATION":97.8885,"RA_OF_ASC_NODE":301.6607,"ARG_OF_PERICENTER":92.4108,"MEAN_ANOMALY":267.7266,"EPHEMERIS_TYPE":0,"CLASSIFICATION_TYPE":"U","NORAD_CAT_ID":32376,"ELEMENT_SET_NO":999,"REV_AT_EPOCH":99446,"BSTAR":6.5104984e-5,"MEAN_MOTION_DOT":4.66e-6,"MEAN_MOTION_DDOT":0},{"OBJECT_NAME":"CARTOSAT-2A","OBJECT_ID":"2008-021A","EPOCH":"2026-04-27T07:29:57.610176","MEAN_MOTION":14.79173317,"ECCENTRICITY":0.00103008,"INCLINATION":97.7684,"RA_OF_ASC_NODE":167.7484,"ARG_OF_PERICENTER":278.8197,"MEAN_ANOMALY":81.1848,"EPHEMERIS_TYPE":0,"CLASSIFICATION_TYPE":"U","NORAD_CAT_ID":32783,"ELEMENT_SET_NO":999,"REV_AT_EPOCH":97128,"BSTAR":0.00014135512,"MEAN_MOTION_DOT":9.99e-6,"MEAN_MOTION_DDOT":0},{"OBJECT_NAME":"CUTE-1.7+APD II (CO-65)","OBJECT_ID":"2008-021C","EPOCH":"2026-04-27T04:42:43.024320","MEAN_MOTION":15.08959991,"ECCENTRICITY":0.00084305,"INCLINATION":97.8254,"RA_OF_ASC_NODE":97.5835,"ARG_OF_PERICENTER":189.8816,"MEAN_ANOMALY":170.2248,"EPHEMERIS_TYPE":0,"CLASSIFICATION_TYPE":"U","NORAD_CAT_ID":32785,"ELEMENT_SET_NO":999,"REV_AT_EPOCH":97750,"BSTAR":0.00039116027,"MEAN_MOTION_DOT":6.116e-5,"MEAN_MOTION_DDOT":0},{"OBJECT_NAME":"SEEDS II (CO-66)","OBJECT_ID":"2008-021J","EPOCH":"2026-04-26T22:08:21.796800","MEAN_MOTION":15.30966474,"ECCENTRICITY":0.000499,"INCLINATION":97.7528,"RA_OF_ASC_NODE":112.4472,"ARG_OF_PERICENTER":113.7428,"MEAN_ANOMALY":246.4336,"EPHEMERIS_TYPE":0,"CLASSIFICATION_TYPE":"U","NORAD_CAT_ID":32791,"ELEMENT_SET_NO":999,"REV_AT_EPOCH":97944,"BSTAR":0.00068577,"MEAN_MOTION_DOT":0.00020476,"MEAN_MOTION_DDOT":0}]
