CUBESAT XI-V            
1 28895U 05043F   26117.16864798  .00001591  00000+0  25858-3 0  9996
2 28895  98.2925 271.7406 0014194  12.8528 347.3037 14.72493837 94245
CLOUDSAT                
1 29107U 06016A   26117.25544739  .00001179  00000+0  14081-3 0  9992
2 29107  98.3974 151.7154 0006307 128.8397 231.3381 14.86288260 66940
CALIPSO                 
1 29108U 06016B   26117.29011997  .00001088  00000+0  19342-3 0  9996
2 29108  98.4498 131.2175 0001831  89.7279 270.4135 14.69252222 65580
HINODE (SOLAR-B)        
1 29479U 06041A   26117.28959110  .00000834  00000+0  15174-3 0  9999
2 29479  98.0578 134.1893 0018960  89.9779 270.3599 14.68547722 47408
METOP-A                 
1 29499U 06044A   26117.27598359  .00002370  00000+0  27866-3 0  9995
2 29499  98.3274 222.4035 0173558 231.4159 182.8963 14.75733678 17949
SHIJIAN-6 02B (SJ-6 02B)
1 29506U 06046B   26117.29206900  .00002203  00000+0  17618-3 0  9995
2 29506  97.7143 146.6711 0010962 235.3250 124.6942 15.01219414 63105
DMSP 5D-3 F17 (USA 191) 
1 29522U 06050A   26117.25733474  .00000124  00000+0  86643-4 0  9990
2 29522  98.7395 124.8675 0009698 194.9734 165.1154 14.14982987  5220
LAPAN-TUBSAT            
1 29709U 07001A   26117.27859236  .00000787  00000+0  96843-4 0  9999
2 29709  98.1348 115.3585 0012189 358.4329   1.6845 14.85896390 43593
HAIYANG-1B              
1 31113U 07010A   26117.24274258  .00000113  00000+0  58837-4 0  9997
2 31113  98.3477 101.0710 0013478 357.9810   2.1317 14.31013951993345
BEIDOU-2 M1             
1 31115U 07011A   26115.37898004 -.00000038  00000+0  00000+0 0  9994
2 31115  50.9482 221.0336 0001598  13.2566 346.7459  1.77349285 75213
CAPE-1                  
1 31130U 07012P   26117.14337343  .00001034  00000+0  19465-3 0  9998
2 31130  98.4433  90.2865 0082525 230.0055 129.3882 14.64757039 10884
CBERS 2B                
1 32062U 07042A   26117.31129957  .00000268  00000+0  95269-4 0  9990
2 32062  98.3893  62.8593 0031940 126.5250  34.9196 14.41447418977357
COSMO-SKYMED 2          
1 32376U 07059A   26117.32561821  .00000466  00000+0  65105-4 0  9993
2 32376  97.8885 301.6607 0001408  92.4108 267.7266 14.82160729994466
CARTOSAT-2A             
1 32783U 08021A   26117.31247234  .00000999  00000+0  14136-3 0  9991
2 32783  97.7684 167.7484 0010300 278.8197  81.1848 14.79173317971289
CUTE-1.7+APD II (CO-65) 
1 32785U 08021C   26117.19633130  .00006116  00000+0  39116-3 0  9995
2 32785  97.8254  97.5835 0008430 189.8816 170.2248 15.08959991977503
SEEDS II (CO-66)        
1 32791U 08021J   26116.92247450  .00020476  00000+0  68577-3 0  9996
2 32791  97.7528 112.4472 0004990 113.7428 246.4336 15.30966474979447
